PANDORA
1 67395U 80229J   26104.88030093  .00000000  00000-0  37770-3 0    05
2 67395  97.8041 104.5260 0004659 357.1247 296.2707 14.87959622    08
